CCSDS_OMM_VERS = 2.0
CREATION_DATE  = 
ORIGINATOR     = 

OBJECT_NAME    = CYGNUS NG-23
OBJECT_ID      = 2025-208A
CENTER_NAME    = EARTH
REF_FRAME      = TEME
TIME_SYSTEM    = UTC
MEAN_ELEMENT_THEORY = SGP/SGP4

EPOCH          = 2026-01-05T12:46:58.665216
MEAN_MOTION    = 15.49114570
ECCENTRICITY   = .00075622
INCLINATION    = 51.6326
RA_OF_ASC_NODE = 24.6699
ARG_OF_PERICENTER = 343.7680
MEAN_ANOMALY   = 16.3066

EPHEMERIS_TYPE = 0
CLASSIFICATION_TYPE = U
NORAD_CAT_ID   = 65616
ELEMENT_SET_NO = 999
REV_AT_EPOCH   = 22
BSTAR          = .23157891E-3
MEAN_MOTION_DOT = .12388E-3
MEAN_MOTION_DDOT = 0

CCSDS_OMM_VERS = 2.0
CREATION_DATE  = 
ORIGINATOR     = 

OBJECT_NAME    = DRAGONFLY
OBJECT_ID      = 1998-067XH
CENTER_NAME    = EARTH
REF_FRAME      = TEME
TIME_SYSTEM    = UTC
MEAN_ELEMENT_THEORY = SGP/SGP4

EPOCH          = 2026-01-05T06:08:44.966400
MEAN_MOTION    = 15.82735395
ECCENTRICITY   = .000865
INCLINATION    = 51.6226
RA_OF_ASC_NODE = 14.5241
ARG_OF_PERICENTER = 52.9557
MEAN_ANOMALY   = 307.2235

EPHEMERIS_TYPE = 0
CLASSIFICATION_TYPE = U
NORAD_CAT_ID   = 65729
ELEMENT_SET_NO = 999
REV_AT_EPOCH   = 1687
BSTAR          = .15848E-2
MEAN_MOTION_DOT = .356045E-2
MEAN_MOTION_DDOT = 0

CCSDS_OMM_VERS = 2.0
CREATION_DATE  = 
ORIGINATOR     = 

OBJECT_NAME    = 1998-067XK
OBJECT_ID      = 1998-067XK
CENTER_NAME    = EARTH
REF_FRAME      = TEME
TIME_SYSTEM    = UTC
MEAN_ELEMENT_THEORY = SGP/SGP4

EPOCH          = 2026-01-05T10:32:49.744896
MEAN_MOTION    = 15.71346613
ECCENTRICITY   = .00051925
INCLINATION    = 51.6284
RA_OF_ASC_NODE = 16.5460
ARG_OF_PERICENTER = 29.2258
MEAN_ANOMALY   = 330.9029

EPHEMERIS_TYPE = 0
CLASSIFICATION_TYPE = U
NORAD_CAT_ID   = 65731
ELEMENT_SET_NO = 999
REV_AT_EPOCH   = 1686
BSTAR          = .11738141E-2
MEAN_MOTION_DOT = .154863E-2
MEAN_MOTION_DDOT = 0

CCSDS_OMM_VERS = 2.0
CREATION_DATE  = 
ORIGINATOR     = 

OBJECT_NAME    = RSP-03
OBJECT_ID      = 1998-067XL
CENTER_NAME    = EARTH
REF_FRAME      = TEME
TIME_SYSTEM    = UTC
MEAN_ELEMENT_THEORY = SGP/SGP4

EPOCH          = 2026-01-05T06:15:38.756736
MEAN_MOTION    = 15.76291933
ECCENTRICITY   = .0006449
INCLINATION    = 51.6254
RA_OF_ASC_NODE = 16.0815
ARG_OF_PERICENTER = 34.8932
MEAN_ANOMALY   = 325.2490

EPHEMERIS_TYPE = 0
CLASSIFICATION_TYPE = U
NORAD_CAT_ID   = 65732
ELEMENT_SET_NO = 999
REV_AT_EPOCH   = 1686
BSTAR          = .13692E-2
MEAN_MOTION_DOT = .225689E-2
MEAN_MOTION_DDOT = 0

CCSDS_OMM_VERS = 2.0
CREATION_DATE  = 
ORIGINATOR     = 

OBJECT_NAME    = GHS-01
OBJECT_ID      = 1998-067XM
CENTER_NAME    = EARTH
REF_FRAME      = TEME
TIME_SYSTEM    = UTC
MEAN_ELEMENT_THEORY = SGP/SGP4

EPOCH          = 2026-01-05T06:25:20.412768
MEAN_MOTION    = 15.89985351
ECCENTRICITY   = .0009396
INCLINATION    = 51.6256
RA_OF_ASC_NODE = 13.1042
ARG_OF_PERICENTER = 58.5879
MEAN_ANOMALY   = 301.6044

EPHEMERIS_TYPE = 0
CLASSIFICATION_TYPE = U
NORAD_CAT_ID   = 65733
ELEMENT_SET_NO = 999
REV_AT_EPOCH   = 1690
BSTAR          = .17284E-2
MEAN_MOTION_DOT = .529026E-2
MEAN_MOTION_DDOT = .11769E-3

CCSDS_OMM_VERS = 2.0
CREATION_DATE  = 
ORIGINATOR     = 

OBJECT_NAME    = YOTSUBA-KULOVER
OBJECT_ID      = 1998-067XN
CENTER_NAME    = EARTH
REF_FRAME      = TEME
TIME_SYSTEM    = UTC
MEAN_ELEMENT_THEORY = SGP/SGP4

EPOCH          = 2026-01-05T11:03:57.647232
MEAN_MOTION    = 15.63308997
ECCENTRICITY   = .00037822
INCLINATION    = 51.6289
RA_OF_ASC_NODE = 20.4464
ARG_OF_PERICENTER = 57.6045
MEAN_ANOMALY   = 302.5315

EPHEMERIS_TYPE = 0
CLASSIFICATION_TYPE = U
NORAD_CAT_ID   = 65941
ELEMENT_SET_NO = 999
REV_AT_EPOCH   = 1356
BSTAR          = .11064542E-2
MEAN_MOTION_DOT = .104506E-2
MEAN_MOTION_DDOT = 0

CCSDS_OMM_VERS = 2.0
CREATION_DATE  = 
ORIGINATOR     = 

OBJECT_NAME    = BOTAN
OBJECT_ID      = 1998-067XP
CENTER_NAME    = EARTH
REF_FRAME      = TEME
TIME_SYSTEM    = UTC
MEAN_ELEMENT_THEORY = SGP/SGP4

EPOCH          = 2026-01-05T06:31:58.155168
MEAN_MOTION    = 15.68988816
ECCENTRICITY   = .00045075
INCLINATION    = 51.6277
RA_OF_ASC_NODE = 19.9288
ARG_OF_PERICENTER = 48.4983
MEAN_ANOMALY   = 311.6401

EPHEMERIS_TYPE = 0
CLASSIFICATION_TYPE = U
NORAD_CAT_ID   = 65942
ELEMENT_SET_NO = 999
REV_AT_EPOCH   = 1355
BSTAR          = .14035635E-2
MEAN_MOTION_DOT = .168177E-2
MEAN_MOTION_DDOT = 0

CCSDS_OMM_VERS = 2.0
CREATION_DATE  = 
ORIGINATOR     = 

OBJECT_NAME    = E-KAGAKU-1
OBJECT_ID      = 1998-067XQ
CENTER_NAME    = EARTH
REF_FRAME      = TEME
TIME_SYSTEM    = UTC
MEAN_ELEMENT_THEORY = SGP/SGP4

EPOCH          = 2026-01-05T07:59:42.762048
MEAN_MOTION    = 15.63289724
ECCENTRICITY   = .00023097
INCLINATION    = 51.6303
RA_OF_ASC_NODE = 21.0978
ARG_OF_PERICENTER = 51.2346
MEAN_ANOMALY   = 308.8854

EPHEMERIS_TYPE = 0
CLASSIFICATION_TYPE = U
NORAD_CAT_ID   = 65943
ELEMENT_SET_NO = 999
REV_AT_EPOCH   = 1354
BSTAR          = .10652522E-2
MEAN_MOTION_DOT = .100451E-2
MEAN_MOTION_DDOT = 0

CCSDS_OMM_VERS = 2.0
CREATION_DATE  = 
ORIGINATOR     = 

OBJECT_NAME    = HRC MONOBLOCK CAMERA
OBJECT_ID      = 1998-067XR
CENTER_NAME    = EARTH
REF_FRAME      = TEME
TIME_SYSTEM    = UTC
MEAN_ELEMENT_THEORY = SGP/SGP4

EPOCH          = 2026-01-05T10:18:38.741184
MEAN_MOTION    = 15.55989869
ECCENTRICITY   = .00013612
INCLINATION    = 51.6306
RA_OF_ASC_NODE = 23.2345
ARG_OF_PERICENTER = 314.3370
MEAN_ANOMALY   = 45.7510

EPHEMERIS_TYPE = 0
CLASSIFICATION_TYPE = U
NORAD_CAT_ID   = 66052
ELEMENT_SET_NO = 999
REV_AT_EPOCH   = 1252
BSTAR          = .59203241E-3
MEAN_MOTION_DOT = .41695E-3
MEAN_MOTION_DDOT = 0

CCSDS_OMM_VERS = 2.0
CREATION_DATE  = 
ORIGINATOR     = 

OBJECT_NAME    = HTV-X1
OBJECT_ID      = 2025-241A
CENTER_NAME    = EARTH
REF_FRAME      = TEME
TIME_SYSTEM    = UTC
MEAN_ELEMENT_THEORY = SGP/SGP4

EPOCH          = 2026-01-05T12:46:58.665216
MEAN_MOTION    = 15.49114570
ECCENTRICITY   = .00075622
INCLINATION    = 51.6326
RA_OF_ASC_NODE = 24.6699
ARG_OF_PERICENTER = 343.7680
MEAN_ANOMALY   = 16.3066

EPHEMERIS_TYPE = 0
CLASSIFICATION_TYPE = U
NORAD_CAT_ID   = 66174
ELEMENT_SET_NO = 999
REV_AT_EPOCH   = 51
BSTAR          = .23157891E-3
MEAN_MOTION_DOT = .12388E-3
MEAN_MOTION_DDOT = 0

CCSDS_OMM_VERS = 2.0
CREATION_DATE  = 
ORIGINATOR     = 

OBJECT_NAME    = SZ-21 MODULE
OBJECT_ID      = 2025-246C
CENTER_NAME    = EARTH
REF_FRAME      = TEME
TIME_SYSTEM    = UTC
MEAN_ELEMENT_THEORY = SGP/SGP4

EPOCH          = 2026-01-04T23:41:23.705088
MEAN_MOTION    = 15.63935128
ECCENTRICITY   = .00018525
INCLINATION    = 41.4747
RA_OF_ASC_NODE = 234.0941
ARG_OF_PERICENTER = 45.0993
MEAN_ANOMALY   = 314.9997

EPHEMERIS_TYPE = 0
CLASSIFICATION_TYPE = U
NORAD_CAT_ID   = 66515
ELEMENT_SET_NO = 999
REV_AT_EPOCH   = 808
BSTAR          = .32468625E-3
MEAN_MOTION_DOT = .31246E-3
MEAN_MOTION_DDOT = 0

CCSDS_OMM_VERS = 2.0
CREATION_DATE  = 
ORIGINATOR     = 

OBJECT_NAME    = SHENZHOU-22
OBJECT_ID      = 2025-272A
CENTER_NAME    = EARTH
REF_FRAME      = TEME
TIME_SYSTEM    = UTC
MEAN_ELEMENT_THEORY = SGP/SGP4

EPOCH          = 2026-01-05T15:54:23.174208
MEAN_MOTION    = 15.60206666
ECCENTRICITY   = .00108338
INCLINATION    = 41.4649
RA_OF_ASC_NODE = 231.3621
ARG_OF_PERICENTER = 226.1462
MEAN_ANOMALY   = 133.8482

EPHEMERIS_TYPE = 0
CLASSIFICATION_TYPE = U
NORAD_CAT_ID   = 66645
ELEMENT_SET_NO = 999
REV_AT_EPOCH   = 26749
BSTAR          = .2069218E-3
MEAN_MOTION_DOT = .17089E-3
MEAN_MOTION_DDOT = 0

